*******************************************************************************
Ephemeris / WWW_USER Mon Mar 24 08:39:07 2025 Pasadena, USA      / Horizons    
*******************************************************************************
Target body name: (2019 AU)                       {source: JPL#11}
Center body name: Earth (399)                     {source: DE441}
Center-site name: Mauna Kea
*******************************************************************************
Start time      : A.D. 2018-Sep-04 04:44:00.0000 UT      
Stop  time      : A.D. 2018-Sep-04 15:57:00.0000 UT      
Step-size       : 1 minutes
*******************************************************************************
Target pole/equ : undefined
Target radii    : undefined                                                    
Center geodetic : 204.5278, 19.8260847, 4.21024   {E-lon(deg),Lat(deg),Alt(km)}
Center cylindric: 204.5278, 6006.35451, 2151.0229 {E-lon(deg),Dxy(km),Dz(km)}
Center pole/equ : ITRF93                          {East-longitude positive}
Center radii    : 6378.137, 6378.137, 6356.752 km {Equator_a, b, pole_c}       
Target primary  : Sun
Vis. interferer : MOON (R_eq= 1737.400) km        {source: DE441}
Rel. light bend : Sun                             {source: DE441}
Rel. lght bnd GM: 1.3271E+11 km^3/s^2                                          
Small-body perts: Yes                             {source: SB441-N16}
Atmos refraction: NO (AIRLESS)
RA format       : HMS
Time format     : CAL 
Calendar mode   : Mixed Julian/Gregorian
RTS-only print  : NO       
EOP file        : eop.250321.p250617                                           
EOP coverage    : DATA-BASED 1962-JAN-20 TO 2025-MAR-21. PREDICTS-> 2025-JUN-16
Units conversion: 1 au= 149597870.700 km, c= 299792.458 km/s, 1 day= 86400.0 s 
Table cut-offs 1: Elevation (-90.0deg=NO ),Airmass (>38.000=NO), Daylight (YES)
Table cut-offs 2: Solar elongation (  0.0,180.0=NO ),Local Hour Angle( 0.0=NO )
Table cut-offs 3: RA/DEC angular rate (     0.0=NO )                           
*******************************************************************************
Initial IAU76/J2000 heliocentric ecliptic osculating elements (au, days, deg.):
  EPOCH=  2458490.5 ! 2019-Jan-07.00 (TDB)         Residual RMS= .17143        
   EC= .1028488096127525   QR= .9927870416208908   TP= 2458466.0562707144      
   OM= 109.6543146265929   W=  330.7265060973358   IN= 5.020660041219873       
  Equivalent ICRF heliocentric cartesian coordinates (au, au/d):
   X=-2.730606646751524E-01  Y= 8.866895536052930E-01  Z= 3.780071563225811E-01
  VX=-1.742089442644723E-02 VY=-4.449382429672076E-03 VZ=-2.237797348809624E-04
Asteroid physical parameters (km, seconds, rotational period in hours):        
   GM= n.a.                RAD= n.a.               ROTPER= n.a.                
   H= 26.7                 G= .150                 B-V= n.a.                   
                           ALBEDO= n.a.            STYP= n.a.                  
*******************************************************************************
 Date__(UT)__HR:MN     R.A._________(ICRF)_________DEC
******************************************************
$$SOE
 2018-Sep-04 12:56  m  01 17 34.708952 -32 49 52.41212
 2018-Sep-04 12:57  m  01 17 34.760925 -32 49 54.35365
 2018-Sep-04 12:58  m  01 17 34.812902 -32 49 56.29451
 2018-Sep-04 12:59  m  01 17 34.864884 -32 49 58.23470
 2018-Sep-04 13:00  m  01 17 34.916869 -32 50 00.17422
 2018-Sep-04 13:01  m  01 17 34.968859 -32 50 02.11307
 2018-Sep-04 13:02  m  01 17 35.020855 -32 50 04.05124
 2018-Sep-04 13:03  m  01 17 35.072856 -32 50 05.98874
 2018-Sep-04 13:04  m  01 17 35.124863 -32 50 07.92557
 2018-Sep-04 13:05  m  01 17 35.176877 -32 50 09.86173
 2018-Sep-04 13:06  m  01 17 35.228898 -32 50 11.79722
 2018-Sep-04 13:07  m  01 17 35.280926 -32 50 13.73204
 2018-Sep-04 13:08  m  01 17 35.332962 -32 50 15.66618
 2018-Sep-04 13:09  m  01 17 35.385006 -32 50 17.59966
 2018-Sep-04 13:10  m  01 17 35.437059 -32 50 19.53246
 2018-Sep-04 13:11  m  01 17 35.489121 -32 50 21.46460
 2018-Sep-04 13:12  m  01 17 35.541193 -32 50 23.39606
 2018-Sep-04 13:13  m  01 17 35.593275 -32 50 25.32686
 2018-Sep-04 13:14  m  01 17 35.645367 -32 50 27.25699
 2018-Sep-04 13:15  m  01 17 35.697470 -32 50 29.18645
 2018-Sep-04 13:16  m  01 17 35.749584 -32 50 31.11524
 2018-Sep-04 13:17  m  01 17 35.801710 -32 50 33.04336
 2018-Sep-04 13:18  m  01 17 35.853849 -32 50 34.97081
 2018-Sep-04 13:19  m  01 17 35.906000 -32 50 36.89760
 2018-Sep-04 13:20  m  01 17 35.958164 -32 50 38.82372
 2018-Sep-04 13:21  m  01 17 36.010341 -32 50 40.74917
 2018-Sep-04 13:22  m  01 17 36.062533 -32 50 42.67396
 2018-Sep-04 13:23  m  01 17 36.114738 -32 50 44.59808
 2018-Sep-04 13:24  m  01 17 36.166959 -32 50 46.52153
 2018-Sep-04 13:25  m  01 17 36.219195 -32 50 48.44432
 2018-Sep-04 13:26  m  01 17 36.271446 -32 50 50.36645
 2018-Sep-04 13:27  m  01 17 36.323714 -32 50 52.28791
 2018-Sep-04 13:28  m  01 17 36.375998 -32 50 54.20871
 2018-Sep-04 13:29  m  01 17 36.428298 -32 50 56.12884
 2018-Sep-04 13:30  m  01 17 36.480617 -32 50 58.04832
 2018-Sep-04 13:31  m  01 17 36.532953 -32 50 59.96713
 2018-Sep-04 13:32  m  01 17 36.585307 -32 51 01.88527
 2018-Sep-04 13:33  m  01 17 36.637680 -32 51 03.80276
 2018-Sep-04 13:34  m  01 17 36.690072 -32 51 05.71959
 2018-Sep-04 13:35  m  01 17 36.742484 -32 51 07.63575
 2018-Sep-04 13:36  m  01 17 36.794915 -32 51 09.55126
 2018-Sep-04 13:37  m  01 17 36.847367 -32 51 11.46611
 2018-Sep-04 13:38  m  01 17 36.899840 -32 51 13.38030
 2018-Sep-04 13:39  m  01 17 36.952333 -32 51 15.29383
 2018-Sep-04 13:40  m  01 17 37.004849 -32 51 17.20671
 2018-Sep-04 13:41  m  01 17 37.057387 -32 51 19.11893
 2018-Sep-04 13:42  m  01 17 37.109947 -32 51 21.03049
 2018-Sep-04 13:43  m  01 17 37.162530 -32 51 22.94140
 2018-Sep-04 13:44  m  01 17 37.215136 -32 51 24.85166
 2018-Sep-04 13:45  m  01 17 37.267766 -32 51 26.76126
 2018-Sep-04 13:46  m  01 17 37.320420 -32 51 28.67021
 2018-Sep-04 13:47  m  01 17 37.373099 -32 51 30.57850
 2018-Sep-04 13:48  m  01 17 37.425803 -32 51 32.48615
 2018-Sep-04 13:49  m  01 17 37.478533 -32 51 34.39314
 2018-Sep-04 13:50  m  01 17 37.531288 -32 51 36.29949
 2018-Sep-04 13:51  m  01 17 37.584070 -32 51 38.20518
 2018-Sep-04 13:52  m  01 17 37.636878 -32 51 40.11023
 2018-Sep-04 13:53  m  01 17 37.689713 -32 51 42.01463
 2018-Sep-04 13:54  m  01 17 37.742577 -32 51 43.91838
 2018-Sep-04 13:55  m  01 17 37.795468 -32 51 45.82149
 2018-Sep-04 13:56  m  01 17 37.848387 -32 51 47.72395
 2018-Sep-04 13:57  m  01 17 37.901335 -32 51 49.62577
 2018-Sep-04 13:58  m  01 17 37.954313 -32 51 51.52694
 2018-Sep-04 13:59  m  01 17 38.007320 -32 51 53.42747
 2018-Sep-04 14:00  m  01 17 38.060357 -32 51 55.32736
 2018-Sep-04 14:01  m  01 17 38.113425 -32 51 57.22661
 2018-Sep-04 14:02  m  01 17 38.166523 -32 51 59.12522
 2018-Sep-04 14:03  m  01 17 38.219653 -32 52 01.02319
 2018-Sep-04 14:04  m  01 17 38.272815 -32 52 02.92052
 2018-Sep-04 14:05  m  01 17 38.326009 -32 52 04.81722
 2018-Sep-04 14:06  m  01 17 38.379235 -32 52 06.71328
 2018-Sep-04 14:07  m  01 17 38.432495 -32 52 08.60870
 2018-Sep-04 14:08  m  01 17 38.485787 -32 52 10.50349
 2018-Sep-04 14:09  m  01 17 38.539114 -32 52 12.39765
 2018-Sep-04 14:10  m  01 17 38.592474 -32 52 14.29117
 2018-Sep-04 14:11  m  01 17 38.645870 -32 52 16.18406
 2018-Sep-04 14:12  m  01 17 38.699300 -32 52 18.07633
 2018-Sep-04 14:13  m  01 17 38.752766 -32 52 19.96796
 2018-Sep-04 14:14  m  01 17 38.806267 -32 52 21.85897
 2018-Sep-04 14:15  m  01 17 38.859805 -32 52 23.74935
 2018-Sep-04 14:16  m  01 17 38.913380 -32 52 25.63910
 2018-Sep-04 14:17  m  01 17 38.966991 -32 52 27.52823
 2018-Sep-04 14:18  m  01 17 39.020640 -32 52 29.41674
 2018-Sep-04 14:19  m  01 17 39.074327 -32 52 31.30462
 2018-Sep-04 14:20  m  01 17 39.128052 -32 52 33.19188
 2018-Sep-04 14:21  m  01 17 39.181816 -32 52 35.07852
 2018-Sep-04 14:22  m  01 17 39.235619 -32 52 36.96454
 2018-Sep-04 14:23  m  01 17 39.289461 -32 52 38.84995
 2018-Sep-04 14:24  m  01 17 39.343344 -32 52 40.73473
 2018-Sep-04 14:25  m  01 17 39.397266 -32 52 42.61890
 2018-Sep-04 14:26  m  01 17 39.451229 -32 52 44.50246
 2018-Sep-04 14:27  m  01 17 39.505233 -32 52 46.38541
 2018-Sep-04 14:28  m  01 17 39.559279 -32 52 48.26774
 2018-Sep-04 14:29  m  01 17 39.613367 -32 52 50.14946
 2018-Sep-04 14:30  m  01 17 39.667497 -32 52 52.03057
 2018-Sep-04 14:31  m  01 17 39.721669 -32 52 53.91108
 2018-Sep-04 14:32  m  01 17 39.775885 -32 52 55.79097
 2018-Sep-04 14:33  m  01 17 39.830143 -32 52 57.67026
 2018-Sep-04 14:34  m  01 17 39.884446 -32 52 59.54895
 2018-Sep-04 14:35  m  01 17 39.938793 -32 53 01.42704
 2018-Sep-04 14:36  m  01 17 39.993185 -32 53 03.30452
 2018-Sep-04 14:37  m  01 17 40.047622 -32 53 05.18140
 2018-Sep-04 14:38  m  01 17 40.102104 -32 53 07.05768
 2018-Sep-04 14:39  m  01 17 40.156631 -32 53 08.93337
 2018-Sep-04 14:40  m  01 17 40.211205 -32 53 10.80846
 2018-Sep-04 14:41  m  01 17 40.265826 -32 53 12.68295
 2018-Sep-04 14:42  m  01 17 40.320493 -32 53 14.55685
 2018-Sep-04 14:43  m  01 17 40.375208 -32 53 16.43016
 2018-Sep-04 14:44  m  01 17 40.429970 -32 53 18.30288
 2018-Sep-04 14:45  m  01 17 40.484781 -32 53 20.17500
 2018-Sep-04 14:46  m  01 17 40.539640 -32 53 22.04655
 2018-Sep-04 14:47  m  01 17 40.594548 -32 53 23.91750
 2018-Sep-04 14:48  m  01 17 40.649505 -32 53 25.78787
 2018-Sep-04 14:49  m  01 17 40.704512 -32 53 27.65765
 2018-Sep-04 14:50  m  01 17 40.759569 -32 53 29.52686
 2018-Sep-04 14:51  m  01 17 40.814676 -32 53 31.39548
 2018-Sep-04 14:52  m  01 17 40.869833 -32 53 33.26352
 2018-Sep-04 14:53 Am  01 17 40.925042 -32 53 35.13099
 2018-Sep-04 14:54 Am  01 17 40.980303 -32 53 36.99788
 2018-Sep-04 14:55 Am  01 17 41.035615 -32 53 38.86420
 2018-Sep-04 14:56 Am  01 17 41.090980 -32 53 40.72994
 2018-Sep-04 14:57 Am  01 17 41.146397 -32 53 42.59511
 2018-Sep-04 14:58 Am  01 17 41.201867 -32 53 44.45971
